NORAD_CAT_ID,OBJECT_NAME,OBJECT_TYPE,EPOCH,MEAN_MOTION,ECCENTRICITY,INCLINATION,RA_OF_ASC_NODE,ARG_OF_PERICENTER,MEAN_ANOMALY,BSTAR,MEAN_MOTION_DOT,MEAN_MOTION_DDOT,TLE_LINE0,TLE_LINE1,TLE_LINE2,SEMIMAJOR_AXIS,PERIOD,APOGEE,PERIGEE,DECAYED
52830.0,STARLINK-4091,PAYLOAD,2024-02-15 15:12:25,15.08839963,0.0001427,53.2173,174.9181,89.7769,270.3386,-6.1282e-07,-2.98e-06,0.0,0 STARLINK-4091,1 52830U 22062A   24046.63363277 -.00000298  00000-0 -61282-6 0  9999,2 52830  53.2173 174.9181 0001427  89.7769 270.3386 15.08839963 92600,6917.881,95.438,540.733,538.758,0.0
52830.0,STARLINK-4091,PAYLOAD,2024-02-16 15:03:12,15.08847147,0.000117,53.2164,170.4556,92.7062,267.4064,0.00047371,7.261e-05,0.0,0 STARLINK-4091,1 52830U 22062A   24047.62723312  .00007261  00000-0  47371-3 0  9994,2 52830  53.2164 170.4556 0001170  92.7062 267.4064 15.08847147 92245,6917.859,95.437,540.533,538.914,0.0
52830.0,STARLINK-4091,PAYLOAD,2024-02-16 18:13:59,15.08850878,0.0001206,53.2157,169.8586,90.1317,269.9813,0.00065201,0.00010107,0.0,0 STARLINK-4091,1 52830U 22062A   24047.75971245  .00010107  00000-0  65201-3 0  9993,2 52830  53.2157 169.8586 0001206  90.1317 269.9813 15.08850878 92779,6917.847,95.437,540.546,538.878,0.0
52830.0,STARLINK-4091,PAYLOAD,2024-02-17 11:43:14,15.08834836,0.0001522,53.2178,166.5908,95.7941,264.3225,-3.6924e-05,-8.75e-06,0.0,0 STARLINK-4091,1 52830U 22062A   24048.48835857 -.00000875  00000-0 -36924-4 0  9996,2 52830  53.2178 166.5908 0001522  95.7941 264.3225 15.08834836 92883,6917.896,95.438,540.814,538.708,0.0
52830.0,STARLINK-4091,PAYLOAD,2024-02-17 14:54:00,15.08837092,0.0001388,53.2177,165.9982,91.0485,269.0666,1.9334e-05,2e-07,0.0,0 STARLINK-4091,1 52830U 22062A   24048.62083830  .00000020  00000-0  19334-4 0  9994,2 52830  53.2177 165.9982 0001388  91.0485 269.0666 15.08837092 92393,6917.889,95.438,540.714,538.794,0.0
52830.0,STARLINK-4091,PAYLOAD,2024-02-18 14:44:47,15.08848033,0.0001404,53.2167,161.5378,91.3001,268.8152,0.00023666,3.481e-05,0.0,0 STARLINK-4091,1 52830U 22062A   24049.61443700  .00003481  00000-0  23666-3 0  9996,2 52830  53.2167 161.5378 0001404  91.3001 268.8152 15.08848033 92540,6917.856,95.437,540.692,538.75,0.0
52830.0,STARLINK-4091,PAYLOAD,2024-02-18 16:20:10,15.08852143,0.0001357,53.2171,161.2408,93.3329,266.7819,0.00034033,5.134e-05,0.0,0 STARLINK-4091,1 52830U 22062A   24049.68067562  .00005134  00000-0  34033-3 0  9998,2 52830  53.2171 161.2408 0001357  93.3329 266.7819 15.08852143 93060,6917.843,95.437,540.647,538.77,0.0
52830.0,STARLINK-4091,PAYLOAD,2024-02-19 11:24:48,15.08839825,0.0001768,53.2171,157.668,116.9731,243.1441,0.00013912,1.927e-05,0.0,0 STARLINK-4091,1 52830U 22062A   24050.47556161  .00001927  00000-0  13912-3 0  9994,2 52830  53.2171 157.6680 0001768 116.9731 243.1441 15.08839825 93181,6917.881,95.438,540.969,538.523,0.0
52830.0,STARLINK-4091,PAYLOAD,2024-02-19 14:35:35,15.08839162,0.0001511,53.2167,157.0759,70.7603,289.3552,0.00017593,2.513e-05,0.0,0 STARLINK-4091,1 52830U 22062A   24050.60804447  .00002513  00000-0  17593-3 0  9993,2 52830  53.2167 157.0759 0001511  70.7603 289.3552 15.08839162 92692,6917.883,95.438,540.793,538.703,0.0
52830.0,STARLINK-4091,PAYLOAD,2024-02-20 12:50:59,15.08839762,0.0001287,53.2161,152.9108,94.0825,266.0314,5.2236e-05,5.44e-06,0.0,0 STARLINK-4091,1 52830U 22062A   24051.53540531  .00000544  00000-0  52236-4 0  9993,2 52830  53.2161 152.9108 0001287  94.0825 266.0314 15.08839762 93340,6917.881,95.438,540.636,538.856,0.0
52830.0,STARLINK-4091,PAYLOAD,2024-02-20 14:26:22,15.08844646,0.0001371,53.2164,152.6153,84.5581,275.5567,0.00017244,2.458e-05,0.0,0 STARLINK-4091,1 52830U 22062A   24051.60164354  .00002458  00000-0  17244-3 0  9991,2 52830  53.2164 152.6153 0001371  84.5581 275.5567 15.08844646 92843,6917.866,95.437,540.68,538.783,0.0
52830.0,STARLINK-4091,PAYLOAD,2024-02-21 11:06:21,15.0886788,0.0001341,53.2166,148.7489,89.5254,270.5891,0.00059433,9.191e-05,0.0,0 STARLINK-4091,1 52830U 22062A   24052.46275063  .00009191  00000-0  59433-3 0  9993,2 52830  53.2166 148.7489 0001341  89.5254 270.5891 15.08867880 93483,6917.795,95.436,540.588,538.732,0.0
52830.0,STARLINK-4091,PAYLOAD,2024-02-21 12:41:45,15.08833504,0.0001579,53.2175,148.4523,104.4857,255.6311,-0.00040738,-6.764e-05,0.0,0 STARLINK-4091,1 52830U 22062A   24052.52899392 -.00006764  00000-0 -40738-3 0  9990,2 52830  53.2175 148.4523 0001579 104.4857 255.6311 15.08833504 92989,6917.9,95.438,540.858,538.673,0.0
52830.0,STARLINK-4091,PAYLOAD,2024-02-22 12:32:32,15.08838391,0.0001508,53.217,143.9932,87.2734,272.8431,-4.7766e-05,-1.048e-05,0.0,0 STARLINK-4091,1 52830U 22062A   24053.52260129 -.00001048  00000-0 -47766-4 0  9990,2 52830  53.2170 143.9932 0001508  87.2734 272.8431 15.08838391 93133,6917.885,95.438,540.794,538.707,0.0
52830.0,STARLINK-4091,PAYLOAD,2024-02-23 12:23:20,15.08855329,0.0001884,53.2172,139.5304,93.6574,266.4633,0.000716,0.0001113,0.0,0 STARLINK-4091,1 52830U 22062A   24054.51620462  .00011130  00000-0  71600-3 0  9994,2 52830  53.2172 139.5304 0001884  93.6574 266.4633 15.08855329 93288,6917.834,95.437,541.002,538.395,0.0
52830.0,STARLINK-4091,PAYLOAD,2024-02-23 15:34:06,15.08862499,0.0001858,53.2171,138.9351,93.2487,266.8717,0.00090168,0.000141,0.0,0 STARLINK-4091,1 52830U 22062A   24054.64868248  .00014100  00000-0  90168-3 0  9994,2 52830  53.2171 138.9351 0001858  93.2487 266.8717 15.08862499 93814,6917.812,95.436,540.962,538.391,0.0
52830.0,STARLINK-4091,PAYLOAD,2024-02-24 12:14:07,15.08844168,0.0001564,53.2168,135.0696,91.8638,268.2534,0.00022594,3.31e-05,0.0,0 STARLINK-4091,1 52830U 22062A   24055.50980601  .00003310  00000-0  22594-3 0  9997,2 52830  53.2168 135.0696 0001564  91.8638 268.2534 15.08844168 93946,6917.868,95.437,540.815,538.651,0.0
52830.0,STARLINK-4091,PAYLOAD,2024-02-25 13:40:17,15.08859454,0.0001575,53.2171,130.313,92.4675,267.6498,0.00080054,0.00012482,0.0,0 STARLINK-4091,1 52830U 22062A   24056.56964361  .00012482  00000-0  80054-3 0  9994,2 52830  53.2171 130.3130 0001575  92.4675 267.6498 15.08859454 93598,6917.821,95.436,540.775,538.596,0.0
52830.0,STARLINK-4091,PAYLOAD,2024-02-25 21:37:12,15.08854448,0.0001506,53.2166,128.8268,93.6574,266.459,0.00046403,7.108e-05,0.0,0 STARLINK-4091,1 52830U 22062A   24056.90084226  .00007108  00000-0  46403-3 0  9994,2 52830  53.2166 128.8268 0001506  93.6574 266.4590 15.08854448 93645,6917.836,95.437,540.743,538.659,0.0
52830.0,STARLINK-4091,PAYLOAD,2024-02-26 03:58:45,15.08851315,0.0001911,53.2172,127.6378,91.7343,268.3868,0.00032671,4.917e-05,0.0,0 STARLINK-4091,1 52830U 22062A   24057.16580319  .00004917  00000-0  32671-3 0  9994,2 52830  53.2172 127.6378 0001911  91.7343 268.3868 15.08851315 94194,6917.846,95.437,541.033,538.389,0.0
52830.0,STARLINK-4091,PAYLOAD,2024-02-26 11:55:41,15.08841771,0.000179,53.2177,126.1508,92.621,267.4987,0.00010112,1.322e-05,0.0,0 STARLINK-4091,1 52830U 22062A   24057.49700581  .00001322  00000-0  10112-3 0  9998,2 52830  53.2177 126.1508 0001790  92.6210 267.4987 15.08841771 94249,6917.875,95.437,540.978,538.502,0.0
52830.0,STARLINK-4091,PAYLOAD,2024-02-27 03:49:33,15.08832339,0.0002166,53.2176,123.1786,69.1978,290.9246,0.00010017,1.306e-05,0.0,0 STARLINK-4091,1 52830U 22062A   24058.15941399  .00001306  00000-0  10017-3 0  9992,2 52830  53.2176 123.1786 0002166  69.1978 290.9246 15.08832339 94341,6917.904,95.438,541.267,538.27,0.0
52830.0,STARLINK-4091,PAYLOAD,2024-02-27 11:46:29,15.08833047,0.0001831,53.2173,121.6898,71.6691,288.45,-9.5735e-05,-1.811e-05,0.0,0 STARLINK-4091,1 52830U 22062A   24058.49061408 -.00001811  00000-0 -95735-4 0  9997,2 52830  53.2173 121.6898 0001831  71.6691 288.4500 15.08833047 93883,6917.902,95.438,541.033,538.5,0.0
52830.0,STARLINK-4091,PAYLOAD,2024-02-27 21:18:47,15.08844511,0.0001463,53.2178,119.9037,91.4912,268.6247,-1.4666e-05,-5.21e-06,0.0,0 STARLINK-4091,1 52830U 22062A   24058.88804950 -.00000521  00000-0 -14666-4 0  9998,2 52830  53.2178 119.9037 0001463  91.4912 268.6247 15.08844511 93943,6917.867,95.437,540.744,538.72,0.0
52830.0,STARLINK-4091,PAYLOAD,2024-02-28 13:12:38,15.08848604,0.0001542,53.2163,116.9293,92.9848,267.1321,0.00023059,3.385e-05,0.0,0 STARLINK-4091,1 52830U 22062A   24059.55044627  .00003385  00000-0  23059-3 0  9994,2 52830  53.2163 116.9293 0001542  92.9848 267.1321 15.08848604 94046,6917.854,95.437,540.786,538.652,0.0
52830.0,STARLINK-4091,PAYLOAD,2024-02-28 21:09:34,15.0884128,0.0001563,53.2177,115.441,82.9629,277.1541,0.00010007,1.305e-05,0.0,0 STARLINK-4091,1 52830U 22062A   24059.88165004  .00001305  00000-0  10007-3 0  9992,2 52830  53.2177 115.4410 0001563  82.9629 277.1541 15.08841280 94098,6917.876,95.437,540.823,538.66,0.0
52830.0,STARLINK-4091,PAYLOAD,2024-02-29 03:31:07,15.08838061,0.0001573,53.2175,114.252,98.8141,261.3029,0.00010272,1.347e-05,0.0,0 STARLINK-4091,1 52830U 22062A   24060.14661304  .00001347  00000-0  10272-3 0  9997,2 52830  53.2175 114.2520 0001573  98.8141 261.3029 15.08838061 94641,6917.886,95.438,540.839,538.663,0.0
52830.0,STARLINK-4091,PAYLOAD,2024-02-29 08:17:16,15.08840093,0.0001607,53.2169,113.3609,85.9606,274.157,0.00012324,1.674e-05,0.0,0 STARLINK-4091,1 52830U 22062A   24060.34533316  .00001674  00000-0  12324-3 0  9993,2 52830  53.2169 113.3609 0001607  85.9606 274.1570 15.08840093 94161,6917.88,95.438,540.857,538.633,0.0
52830.0,STARLINK-4091,PAYLOAD,2024-02-29 21:00:21,15.0884154,0.0001416,53.216,110.9811,90.4854,269.6301,0.00011183,1.492e-05,0.0,0 STARLINK-4091,1 52830U 22062A   24060.87525155  .00001492  00000-0  11183-3 0  9993,2 52830  53.2160 110.9811 0001416  90.4854 269.6301 15.08841540 94242,6917.876,95.437,540.72,538.761,0.0
52830.0,STARLINK-4091,PAYLOAD,2024-03-01 12:54:12,15.08847107,0.0001478,53.2166,108.0065,94.5764,265.5397,6.3263e-05,7.19e-06,0.0,0 STARLINK-4091,1 52830U 22062A   24061.53764807  .00000719  00000-0  63263-4 0  9994,2 52830  53.2166 108.0065 0001478  94.5764 265.5397 15.08847107 94346,6917.859,95.437,540.746,538.701,0.0
